ARIANE 40 R/B           
1 20443U 90005H   25328.87899965  .00000398  00000+0  14048-3 0  9997
2 20443  98.3267  27.5598 0010728 154.6671 205.5046 14.39778662877720
DELTA 2 R/B(1)          
1 20453U 90008B   25328.77846280  .00036811  00000+0  62114-3 0  9998
2 20453  35.6049 136.3570 0114648  14.0640 346.3244 15.43475177909858
COSMOS 2058             
1 20465U 90010A   25328.93620789  .00004891  00000+0  29712-3 0  9996
2 20465  82.4630 150.5455 0009490 345.1547  14.9402 15.10245001926420
SL-14 R/B               
1 20466U 90010B   25328.53348442  .00000506  00000+0  58599-4 0  9991
2 20466  82.5033   6.1463 0018320 287.7872  72.1343 14.83446829912894
SL-14 R/B               
1 20511U 90018B   25328.99036795  .00000563  00000+0  67783-4 0  9993
2 20511  82.5198 320.9565 0017966  77.8596 282.4630 14.82019945907076
HST                     
1 20580U 90037B   25328.89459892  .00008827  00000+0  30882-3 0  9996
2 20580  28.4701  33.9153 0001962  52.6609 307.4164 15.27692216757262
SL-16 R/B               
1 20625U 90046B   25328.93138249  .00000223  00000+0  13943-3 0  9992
2 20625  70.9962 157.9205 0012250 106.4903 253.7566 14.14991565833577
COSMOS 2084             
1 20663U 90055A   25328.76044334  .00003277  00000+0  24202-3 0  9998
2 20663  62.7911 333.2478 0034550 172.4812 187.6813 15.04856488920528
SL-6 R/B(2)             
1 20666U 90055D   25328.93703393  .00003155  00000+0  24778-3 0  9990
2 20666  62.7831 249.8993 0011268 294.4887  65.5037 15.02956310922442
SL-8 R/B                
1 20775U 90078B   25328.94748066  .00026829  00000+0  83051-3 0  9995
2 20775  82.9053 345.2228 0377671   5.6002 354.9254 14.84854735793730
SL-8 R/B                
1 21088U 91006B   25328.80809110  .00000123  00000+0  10807-3 0  9996
2 21088  82.9428 248.0498 0021958 332.6417  81.5425 13.77486931749633
OKEAN-3                 
1 21397U 91039A   25328.78561987  .00005164  00000+0  37178-3 0  9999
2 21397  82.5175  78.4214 0013947 332.4480  27.6005 15.03941305849266
