CCSDS_OMM_VERS = 2.0
CREATION_DATE  = 
ORIGINATOR     = 

OBJECT_NAME    = ARIANE 40 R/B
OBJECT_ID      = 1990-005H
CENTER_NAME    = EARTH
REF_FRAME      = TEME
TIME_SYSTEM    = UTC
MEAN_ELEMENT_THEORY = SGP/SGP4

EPOCH          = 2025-11-24T21:05:45.569760
MEAN_MOTION    = 14.39778662
ECCENTRICITY   = .00107285
INCLINATION    = 98.3267
RA_OF_ASC_NODE = 27.5598
ARG_OF_PERICENTER = 154.6671
MEAN_ANOMALY   = 205.5046

EPHEMERIS_TYPE = 0
CLASSIFICATION_TYPE = U
NORAD_CAT_ID   = 20443
ELEMENT_SET_NO = 999
REV_AT_EPOCH   = 87772
BSTAR          = .14047558E-3
MEAN_MOTION_DOT = .398E-5
MEAN_MOTION_DDOT = 0

CCSDS_OMM_VERS = 2.0
CREATION_DATE  = 
ORIGINATOR     = 

OBJECT_NAME    = DELTA 2 R/B(1)
OBJECT_ID      = 1990-008B
CENTER_NAME    = EARTH
REF_FRAME      = TEME
TIME_SYSTEM    = UTC
MEAN_ELEMENT_THEORY = SGP/SGP4

EPOCH          = 2025-11-24T18:40:59.185920
MEAN_MOTION    = 15.43475177
ECCENTRICITY   = .0114648
INCLINATION    = 35.6049
RA_OF_ASC_NODE = 136.3570
ARG_OF_PERICENTER = 14.0640
MEAN_ANOMALY   = 346.3244

EPHEMERIS_TYPE = 0
CLASSIFICATION_TYPE = U
NORAD_CAT_ID   = 20453
ELEMENT_SET_NO = 999
REV_AT_EPOCH   = 90985
BSTAR          = .62113586E-3
MEAN_MOTION_DOT = .36811E-3
MEAN_MOTION_DDOT = 0

CCSDS_OMM_VERS = 2.0
CREATION_DATE  = 
ORIGINATOR     = 

OBJECT_NAME    = COSMOS 2058
OBJECT_ID      = 1990-010A
CENTER_NAME    = EARTH
REF_FRAME      = TEME
TIME_SYSTEM    = UTC
MEAN_ELEMENT_THEORY = SGP/SGP4

EPOCH          = 2025-11-24T22:28:08.361696
MEAN_MOTION    = 15.10245001
ECCENTRICITY   = .00094905
INCLINATION    = 82.4630
RA_OF_ASC_NODE = 150.5455
ARG_OF_PERICENTER = 345.1547
MEAN_ANOMALY   = 14.9402

EPHEMERIS_TYPE = 0
CLASSIFICATION_TYPE = U
NORAD_CAT_ID   = 20465
ELEMENT_SET_NO = 999
REV_AT_EPOCH   = 92642
BSTAR          = .29711638E-3
MEAN_MOTION_DOT = .4891E-4
MEAN_MOTION_DDOT = 0

CCSDS_OMM_VERS = 2.0
CREATION_DATE  = 
ORIGINATOR     = 

OBJECT_NAME    = SL-14 R/B
OBJECT_ID      = 1990-010B
CENTER_NAME    = EARTH
REF_FRAME      = TEME
TIME_SYSTEM    = UTC
MEAN_ELEMENT_THEORY = SGP/SGP4

EPOCH          = 2025-11-24T12:48:13.053888
MEAN_MOTION    = 14.83446829
ECCENTRICITY   = .00183206
INCLINATION    = 82.5033
RA_OF_ASC_NODE = 6.1463
ARG_OF_PERICENTER = 287.7872
MEAN_ANOMALY   = 72.1343

EPHEMERIS_TYPE = 0
CLASSIFICATION_TYPE = U
NORAD_CAT_ID   = 20466
ELEMENT_SET_NO = 999
REV_AT_EPOCH   = 91289
BSTAR          = .5859851E-4
MEAN_MOTION_DOT = .506E-5
MEAN_MOTION_DDOT = 0

CCSDS_OMM_VERS = 2.0
CREATION_DATE  = 
ORIGINATOR     = 

OBJECT_NAME    = SL-14 R/B
OBJECT_ID      = 1990-018B
CENTER_NAME    = EARTH
REF_FRAME      = TEME
TIME_SYSTEM    = UTC
MEAN_ELEMENT_THEORY = SGP/SGP4

EPOCH          = 2025-11-24T23:46:07.790880
MEAN_MOTION    = 14.82019945
ECCENTRICITY   = .00179663
INCLINATION    = 82.5198
RA_OF_ASC_NODE = 320.9565
ARG_OF_PERICENTER = 77.8596
MEAN_ANOMALY   = 282.4630

EPHEMERIS_TYPE = 0
CLASSIFICATION_TYPE = U
NORAD_CAT_ID   = 20511
ELEMENT_SET_NO = 999
REV_AT_EPOCH   = 90707
BSTAR          = .67782762E-4
MEAN_MOTION_DOT = .563E-5
MEAN_MOTION_DDOT = 0

CCSDS_OMM_VERS = 2.0
CREATION_DATE  = 
ORIGINATOR     = 

OBJECT_NAME    = HST
OBJECT_ID      = 1990-037B
CENTER_NAME    = EARTH
REF_FRAME      = TEME
TIME_SYSTEM    = UTC
MEAN_ELEMENT_THEORY = SGP/SGP4

EPOCH          = 2025-11-24T21:28:13.346688
MEAN_MOTION    = 15.27692216
ECCENTRICITY   = .00019623
INCLINATION    = 28.4701
RA_OF_ASC_NODE = 33.9153
ARG_OF_PERICENTER = 52.6609
MEAN_ANOMALY   = 307.4164

EPHEMERIS_TYPE = 0
CLASSIFICATION_TYPE = U
NORAD_CAT_ID   = 20580
ELEMENT_SET_NO = 999
REV_AT_EPOCH   = 75726
BSTAR          = .30881985E-3
MEAN_MOTION_DOT = .8827E-4
MEAN_MOTION_DDOT = 0

CCSDS_OMM_VERS = 2.0
CREATION_DATE  = 
ORIGINATOR     = 

OBJECT_NAME    = SL-16 R/B
OBJECT_ID      = 1990-046B
CENTER_NAME    = EARTH
REF_FRAME      = TEME
TIME_SYSTEM    = UTC
MEAN_ELEMENT_THEORY = SGP/SGP4

EPOCH          = 2025-11-24T22:21:11.447136
MEAN_MOTION    = 14.14991565
ECCENTRICITY   = .00122508
INCLINATION    = 70.9962
RA_OF_ASC_NODE = 157.9205
ARG_OF_PERICENTER = 106.4903
MEAN_ANOMALY   = 253.7566

EPHEMERIS_TYPE = 0
CLASSIFICATION_TYPE = U
NORAD_CAT_ID   = 20625
ELEMENT_SET_NO = 999
REV_AT_EPOCH   = 83357
BSTAR          = .13943451E-3
MEAN_MOTION_DOT = .223E-5
MEAN_MOTION_DDOT = 0

CCSDS_OMM_VERS = 2.0
CREATION_DATE  = 
ORIGINATOR     = 

OBJECT_NAME    = COSMOS 2084
OBJECT_ID      = 1990-055A
CENTER_NAME    = EARTH
REF_FRAME      = TEME
TIME_SYSTEM    = UTC
MEAN_ELEMENT_THEORY = SGP/SGP4

EPOCH          = 2025-11-24T18:15:02.304576
MEAN_MOTION    = 15.04856488
ECCENTRICITY   = .00345503
INCLINATION    = 62.7911
RA_OF_ASC_NODE = 333.2478
ARG_OF_PERICENTER = 172.4812
MEAN_ANOMALY   = 187.6813

EPHEMERIS_TYPE = 0
CLASSIFICATION_TYPE = U
NORAD_CAT_ID   = 20663
ELEMENT_SET_NO = 999
REV_AT_EPOCH   = 92052
BSTAR          = .24202368E-3
MEAN_MOTION_DOT = .3277E-4
MEAN_MOTION_DDOT = 0

CCSDS_OMM_VERS = 2.0
CREATION_DATE  = 
ORIGINATOR     = 

OBJECT_NAME    = SL-6 R/B(2)
OBJECT_ID      = 1990-055D
CENTER_NAME    = EARTH
REF_FRAME      = TEME
TIME_SYSTEM    = UTC
MEAN_ELEMENT_THEORY = SGP/SGP4

EPOCH          = 2025-11-24T22:29:19.731552
MEAN_MOTION    = 15.02956310
ECCENTRICITY   = .00112681
INCLINATION    = 62.7831
RA_OF_ASC_NODE = 249.8993
ARG_OF_PERICENTER = 294.4887
MEAN_ANOMALY   = 65.5037

EPHEMERIS_TYPE = 0
CLASSIFICATION_TYPE = U
NORAD_CAT_ID   = 20666
ELEMENT_SET_NO = 999
REV_AT_EPOCH   = 92244
BSTAR          = .24778198E-3
MEAN_MOTION_DOT = .3155E-4
MEAN_MOTION_DDOT = 0

CCSDS_OMM_VERS = 2.0
CREATION_DATE  = 
ORIGINATOR     = 

OBJECT_NAME    = SL-8 R/B
OBJECT_ID      = 1990-078B
CENTER_NAME    = EARTH
REF_FRAME      = TEME
TIME_SYSTEM    = UTC
MEAN_ELEMENT_THEORY = SGP/SGP4

EPOCH          = 2025-11-24T22:44:22.329024
MEAN_MOTION    = 14.84854735
ECCENTRICITY   = .03776711
INCLINATION    = 82.9053
RA_OF_ASC_NODE = 345.2228
ARG_OF_PERICENTER = 5.6002
MEAN_ANOMALY   = 354.9254

EPHEMERIS_TYPE = 0
CLASSIFICATION_TYPE = U
NORAD_CAT_ID   = 20775
ELEMENT_SET_NO = 999
REV_AT_EPOCH   = 79373
BSTAR          = .83051006E-3
MEAN_MOTION_DOT = .26829E-3
MEAN_MOTION_DDOT = 0

CCSDS_OMM_VERS = 2.0
CREATION_DATE  = 
ORIGINATOR     = 

OBJECT_NAME    = SL-8 R/B
OBJECT_ID      = 1991-006B
CENTER_NAME    = EARTH
REF_FRAME      = TEME
TIME_SYSTEM    = UTC
MEAN_ELEMENT_THEORY = SGP/SGP4

EPOCH          = 2025-11-24T19:23:39.071040
MEAN_MOTION    = 13.77486931
ECCENTRICITY   = .00219584
INCLINATION    = 82.9428
RA_OF_ASC_NODE = 248.0498
ARG_OF_PERICENTER = 332.6417
MEAN_ANOMALY   = 81.5425

EPHEMERIS_TYPE = 0
CLASSIFICATION_TYPE = U
NORAD_CAT_ID   = 21088
ELEMENT_SET_NO = 999
REV_AT_EPOCH   = 74963
BSTAR          = .10807269E-3
MEAN_MOTION_DOT = .123E-5
MEAN_MOTION_DDOT = 0

CCSDS_OMM_VERS = 2.0
CREATION_DATE  = 
ORIGINATOR     = 

OBJECT_NAME    = OKEAN-3
OBJECT_ID      = 1991-039A
CENTER_NAME    = EARTH
REF_FRAME      = TEME
TIME_SYSTEM    = UTC
MEAN_ELEMENT_THEORY = SGP/SGP4

EPOCH          = 2025-11-24T18:51:17.556768
MEAN_MOTION    = 15.03941305
ECCENTRICITY   = .00139472
INCLINATION    = 82.5175
RA_OF_ASC_NODE = 78.4214
ARG_OF_PERICENTER = 332.4480
MEAN_ANOMALY   = 27.6005

EPHEMERIS_TYPE = 0
CLASSIFICATION_TYPE = U
NORAD_CAT_ID   = 21397
ELEMENT_SET_NO = 999
REV_AT_EPOCH   = 84926
BSTAR          = .37177941E-3
MEAN_MOTION_DOT = .5164E-4
MEAN_MOTION_DDOT = 0

